HELIOS 1B               
1 25977U 99064A   20362.45782642  .00000085  00000-0  17722-4 0  9995
2 25977  98.2993 164.3524 0002503  86.9774 273.1724 14.82520873403719
TERRA                   
1 25994U 99068A   20362.56964836  .00000074  00000-0  26528-4 0  9999
2 25994  98.1961  73.9851 0001221  98.9149  38.0629 14.57115953118317
SL-16 R/B               
1 26070U 00006B   20362.58835880 -.00000058  00000-0 -51467-5 0  9992
2 26070  71.0027 127.4019 0017127 198.3776 161.6730 14.15472091 79966
MTI                     
1 26102U 00014A   20362.66072928  .00009573  00000-0  12890-3 0  9996
2 26102  97.4804 254.3934 0005218 227.3523 132.7290 15.58065217154571
TITAN 4B R/B            
1 26474U 00047B   20362.47366752  .00000280  00000-0  35009-4 0  9998
2 26474  67.9936 264.3616 0057553 340.4096  19.4833 14.96057202108119
ENVISAT                 
1 27386U 02009A   20362.46335433  .00000041  00000-0  26886-4 0  9990
2 27386  98.1405 359.3933 0001297  86.2745  75.7672 14.38006259986286
IDEFIX & ARIANE 42P R/B 
1 27422U 02021B   20362.45863624  .00000011  00000-0  20715-4 0  9994
2 27422  98.3798 315.7898 0012776  25.7547 334.4269 14.29303967972730
AQUA                    
1 27424U 02022A   20362.45398014  .00000118  00000-0  36149-4 0  9999
2 27424  98.2123 300.2443 0002444  95.3379  52.0154 14.57110507991975
CZ-4B R/B               
1 27432U 02024C   20362.52139330 -.00000008  00000-0  20075-4 0  9992
2 27432  99.0898   8.0112 0050311 352.9077 170.4803 14.14102064960931
MIDORI II (ADEOS-II)    
1 27597U 02056A   20362.43675656  .00000043  00000-0  34950-4 0  9990
2 27597  98.5450 305.3847 0001800 111.3017 248.8357 14.27477043939340
H-2A R/B                
1 27601U 02056E   20362.36926755  .00000155  00000-0  70545-4 0  9991
2 27601  98.2065  28.0138 0073172  63.4242 308.0600 14.31995211942302
CZ-4B R/B               
1 28059U 03049C   20362.39864407  .00000011  00000-0  14534-4 0  9997
2 28059  98.4898 281.0912 0048867 268.8327  90.7269 14.52627957910847
CZ-2C R/B               
1 28222U 04012C   20362.49877176  .00000694  00000-0  44941-4 0  9990
2 28222  97.7044 325.8703 0048500  89.5732  24.5307 15.10624643915130
SL-16 R/B               
1 28353U 04021B   20362.44319858 -.00000004  00000-0  22650-4 0  9997
2 28353  71.0015 254.5677 0004055  14.3354 345.7882 14.14244696854428
CZ-4B R/B               
1 28415U 04035C   20362.40145518  .00000734  00000-0  51792-4 0  9995
2 28415  97.5899  41.6009 0052654  55.5303 305.0882 15.06989175892693
CZ-2C R/B               
1 28480U 04046B   20362.50212139 -.00000001  00000-0  14613-4 0  9993
2 28480  98.0606  22.2942 0142149  13.8585 155.0624 14.25736444837927
ARIANE 5 R/B            
1 28499U 04049H   20362.32301896  .00000062  00000-0  15028-4 0  9992
2 28499  98.0630 104.8085 0092296  10.8463  54.8852 14.80076435864622
CZ-2D R/B               
1 28738U 05024B   20362.47873781  .00000657  00000-0  41646-4 0  9990
2 28738  97.3706  18.5305 0010511 231.7521 128.2765 15.12219578850570
SUZAKU (ASTRO-EII)      
1 28773U 05025A   20362.24581272  .00001478  00000-0  66663-4 0  9994
2 28773  31.3803 202.7658 0004654 345.7497  14.3018 15.17966778853274
ALOS (DAICHI)           
1 28931U 06002A   20362.52519459  .00000174  00000-0  42809-4 0  9993
2 28931  97.8661 339.0123 0000815 107.8623 252.2666 14.62778966795921
H-2A R/B                
1 28932U 06002B   20362.50759424  .00000723  00000-0  71767-4 0  9995
2 28932  98.3305   3.5430 0089494  50.6137  99.5981 14.92390878809936
AKARI (ASTRO-F)         
1 28939U 06005A   20362.49597092  .00006376  00000-0  16372-3 0  9994
2 28939  98.2471 359.1456 0090712   9.3883 350.9027 15.35568709810506
RESURS-DK 1             
1 29228U 06021A   20362.47180396  .00000196  00000-0  22026-4 0  9995
2 29228  69.9362  56.6060 0004966 205.3124 154.7794 15.02620927801746
GENESIS 1               
1 29252U 06029A   20362.47346818  .00000786  00000-0  47867-4 0  9998
2 29252  64.5228  30.1704 0021373 351.9401   8.1376 15.18394867797407
CZ-4B R/B               
1 29507U 06046C   20362.33364676  .00000353  00000-0  32339-4 0  9995
2 29507  97.7179  23.3092 0044982 236.5486 123.1433 15.00605575774295
CZ-2C R/B               
1 31114U 07010B   20362.46389552  .00000012  00000-0  23781-4 0  9991
2 31114  98.2386 202.1719 0060799  64.9243 295.8228 14.19341771710382
COSMO-SKYMED 1          
1 31598U 07023A   20362.49039917  .00000379  00000-0  54134-4 0  9993
2 31598  97.8825 182.8496 0001476  91.4944 268.6452 14.82154866733421
GENESIS 2               
1 31789U 07028A   20362.47185862  .00001027  00000-0  60659-4 0  9999
2 31789  64.5045  72.1684 0031375 222.5576 137.3115 15.17526807744468
COSMOS 2428             
1 31792U 07029A   20362.36044292 -.00000128  00000-0 -43492-4 0  9992
2 31792  70.8920 227.6836 0006820 163.3849 196.7496 14.12242864696012
SL-16 R/B               
1 31793U 07029B   20362.29372200 -.00000068  00000-0 -10686-4 0  9990
2 31793  70.9729 201.2724 0002340 276.6266 256.1004 14.14435305696921
KORONAS-FOTON           
1 33504U 09003A   20362.46965835  .00000368  00000-0  17514-4 0  9995
2 33504  82.4416  30.7515 0018234 335.8465  24.1910 15.15822041656615
H-2A R/B                
1 38341U 12025E   20362.47871815  .00000247  00000-0  36444-4 0  9991
2 38341  98.5167 170.2679 0054878 332.9979  26.8380 14.84137899465997
CUSAT 2 & FALCON 9 R/B  
1 39271U 13055G   20362.45113131  .00007003  00000-0  16788-3 0  9991
2 39271  80.9673  59.0867 0577652 308.9714  46.1336 14.50452527378686
SL-4 R/B                
1 39679U 14021B   20362.28404469  .00000423  00000-0  38187-4 0  9992
2 39679  51.6175 292.4038 0170448 254.0266 104.1869 15.06699624368091
ALOS-2                  
1 39766U 14029A   20362.40004773  .00000233  00000-0  38013-4 0  9992
2 39766  97.9224  96.2420 0001515  93.0756 267.0615 14.79474716356226
CZ-2C R/B               
1 40306U 14071B   20362.43743527  .00005574  00000-0  11359-3 0  9997
2 40306  97.3490 311.0505 0014733 174.5697 185.5715 15.46549653343650
SL-27 R/B               
1 40354U 14084B   20362.42301656  .00001542  00000-0  38284-4 0  9994
2 40354  74.7376 348.7720 0035463  79.7690 280.7518 15.40655131337849
YAOGAN 29               
1 41038U 15069A   20362.53639734  .00000050  00000-0  13528-4 0  9998
2 41038  98.0263 350.3586 0001582  49.1512 310.9832 14.80477987274840
ASTRO-H (HITOMI)        
1 41337U 16012A   20362.34375457  .00000353  00000-0  21673-4 0  9993
2 41337  31.0042 226.6966 0012358 178.2020 181.8661 14.98762774266466
HXMT (HUIYAN)           
1 42758U 17034A   20362.56784155  .00000554  00000-0  48039-4 0  9997
2 42758  43.0186  56.4728 0008971 169.0027 337.3481 15.09013439195045
CZ-2C R/B               
1 43521U 18054D   20362.46731995  .00000836  00000-0  47237-4 0  9994
2 43521  35.1543  70.2712 0082163  19.9488 340.4410 15.11262194138365
AEOLUS                  
1 43600U 18066A   20362.45730424  .00038941  00000-0  15236-3 0  9991
2 43600  96.7185   5.9396 0007034  94.3396 265.8681 15.86884707135976
SAOCOM 1A               
1 43641U 18076A   20362.49876165  .00000047  00000-0  12431-4 0  9995
2 43641  97.8856 185.8676 0001436  81.5190 278.6198 14.82150667120196
CREW DRAGON DEMO-1 DEB  
1 44064U 19011B   20362.40083932  .00037799  00000-0  27364-3 0  9992
2 44064  51.6324  50.5069 0003819  46.0961 314.0353 15.73058900103183
CZ-2F R/B               
1 46390U 20063B   20362.51041813  .00037229  00000-0  16444-3 0  9994
2 46390  50.2004 176.0749 0009585  81.7890 278.4180 15.83986091 18064
2020-063G               
1 46395U 20063G   20362.51662743  .00017345  00000-0  93666-4 0  9999
2 46395  50.2031 177.7283 0008992  72.0643 288.1318 15.80170184 18033
